GLOBALSTAR M084         
1 38040U 11080A   25123.91090635 -.00000095  00000+0  50541-4 0  9994
2 38040  51.9993 183.2676 0000078 224.2793 306.8368 12.62265806617354
GLOBALSTAR M080         
1 38041U 11080B   25124.33692532 -.00000090  00000+0  75040-4 0  9992
2 38041  52.0044 183.5463 0000671  94.1140 344.0558 12.62262634617395
GLOBALSTAR M082         
1 38042U 11080C   25123.81840425 -.00000106  00000+0 -15069-4 0  9995
2 38042  52.0049 140.5802 0000574  89.2772  81.6196 12.62266030617890
GLOBALSTAR M092         
1 38043U 11080D   25124.23245640 -.00000088  00000+0  90013-4 0  9991
2 38043  52.0080 229.6936 0000496 121.6161 252.0057 12.62264002616615
GLOBALSTAR M090         
1 38044U 11080E   25124.04857760 -.00000103  00000+0  59070-5 0  9990
2 38044  51.9858 133.7436 0000329  98.8164 278.6287 12.62270082618087
GLOBALSTAR M086         
1 38045U 11080F   25123.79203924 -.00000091  00000+0  72533-4 0  9993
2 38045  51.9870 135.0724 0000799 211.6352 319.9068 12.62270371617954
GLOBALSTAR M097         
1 39072U 13005A   25124.17679177 -.00000091  00000+0  68544-4 0  9990
2 39072  52.0064  48.4010 0000555  89.6578 270.4352 12.62271841565334
GLOBALSTAR M093         
1 39073U 13005B   25124.15022042 -.00000093  00000+0  60398-4 0  9993
2 39073  51.9831  41.8544 0000626  86.4544 273.6394 12.62264176565324
